{"type": "FeatureCollection", "features": [ {"type": "Feature", "properties": {"norad_id": 66830, "name": "STARLINK-35881", "group": "last-30-days", "lat": 62.99409680070766, "lon": -143.71884695759695, "alt_km": 404.841095069939, "timestamp": "2025-12-22T20:43:44.566142+00:00", "meta": {"OBJECT_NAME": "STARLINK-35881", "OBJECT_ID": "2025-280K", "EPOCH": "2025-12-22T14:00:01.999872", "MEAN_MOTION": 15.52483409, "ECCENTRICITY": 0.00033157, "INCLINATION": 70.0003, "RA_OF_ASC_NODE": 171.4341, "ARG_OF_PERICENTER": 269.057, "MEAN_ANOMALY": 36.0278, "EPHEMERIS_TYPE": 0, "CLASSIFICATION_TYPE": "U", "NORAD_CAT_ID": 66830, "ELEMENT_SET_NO": 999, "REV_AT_EPOCH": 447, "BSTAR": 0.00035137834, "MEAN_MOTION_DOT": 0.0002148, "MEAN_MOTION_DDOT": 0}, "tle": {"line1": "1 66830U 25280K   25356.58335648  .00021480  00000+0  35138-3 0  9990", "line2": "2 66830  70.0003 171.4341 0003315 269.0570  36.0278 15.52483409  4479"}}, "geometry": {"type": "Point", "coordinates": [-143.71884695759695, 62.99409680070766]}}, {"type": "Feature", "properties": {"norad_id": 66831, "name": "STARLINK-35788", "group": "last-30-days", "lat": 64.20772434696349, "lon": -140.42313380347682, "alt_km": 404.68017639899426, "timestamp": "2025-12-22T20:43:44.566153+00:00", "meta": {"OBJECT_NAME": "STARLINK-35788", "OBJECT_ID": "2025-280L", "EPOCH": "2025-12-22T14:00:01.999872", "MEAN_MOTION": 15.52488608, "ECCENTRICITY": 0.00033996, "INCLINATION": 70, "RA_OF_ASC_NODE": 171.4318, "ARG_OF_PERICENTER": 273.8598, "MEAN_ANOMALY": 33.1103, "EPHEMERIS_TYPE": 0, "CLASSIFICATION_TYPE": "U", "NORAD_CAT_ID": 66831, "ELEMENT_SET_NO": 999, "REV_AT_EPOCH": 447, "BSTAR": 0.00075015065, "MEAN_MOTION_DOT": 0.00046201, "MEAN_MOTION_DDOT": 0}, "tle": {"line1": "1 66831U 25280L   25356.58335648  .00046201  00000+0  75015-3 0  9997", "line2": "2 66831  70.0000 171.4318 0003399 273.8598  33.1103 15.52488608  4477"}}, "geometry": {"type": "Point", "coordinates": [-140.42313380347682, 64.20772434696349]}}, {"type": "Feature", "properties": {"norad_id": 66832, "name": "STARLINK-35768", "group": "last-30-days", "lat": 65.34313799653377, "lon": -136.82908131908255, "alt_km": 404.57679771413405, "timestamp": "2025-12-22T20:43:44.566164+00:00", "meta": {"OBJECT_NAME": "STARLINK-35768", "OBJECT_ID": "2025-280M", "EPOCH": "2025-12-22T14:00:01.999872", "MEAN_MOTION": 15.52496037, "ECCENTRICITY": 0.00032788, "INCLINATION": 70.0003, "RA_OF_ASC_NODE": 171.4288, "ARG_OF_PERICENTER": 267.0282, "MEAN_ANOMALY": 41.8472, "EPHEMERIS_TYPE": 0, "CLASSIFICATION_TYPE": "U", "NORAD_CAT_ID": 66832, "ELEMENT_SET_NO": 999, "REV_AT_EPOCH": 447, "BSTAR": 0.000573011, "MEAN_MOTION_DOT": 0.00035212, "MEAN_MOTION_DDOT": 0}, "tle": {"line1": "1 66832U 25280M   25356.58335648  .00035212  00000+0  57301-3 0  9996", "line2": "2 66832  70.0003 171.4288 0003278 267.0282  41.8472 15.52496037  4478"}}, "geometry": {"type": "Point", "coordinates": [-136.82908131908255, 65.34313799653377]}}, {"type": "Feature", "properties": {"norad_id": 66833, "name": "STARLINK-35858", "group": "last-30-days", "lat": 66.39154533500577, "lon": -132.8952556893762, "alt_km": 404.569580229303, "timestamp": "2025-12-22T20:43:44.566195+00:00", "meta": {"OBJECT_NAME": "STARLINK-35858", "OBJECT_ID": "2025-280N", "EPOCH": "2025-12-22T14:00:01.999872", "MEAN_MOTION": 15.52491992, "ECCENTRICITY": 0.00034216, "INCLINATION": 70, "RA_OF_ASC_NODE": 171.4271, "ARG_OF_PERICENTER": 270.6088, "MEAN_ANOMALY": 40.1857, "EPHEMERIS_TYPE": 0, "CLASSIFICATION_TYPE": "U", "NORAD_CAT_ID": 66833, "ELEMENT_SET_NO": 999, "REV_AT_EPOCH": 447, "BSTAR": 0.0005713688, "MEAN_MOTION_DOT": 0.00035105, "MEAN_MOTION_DDOT": 0}, "tle": {"line1": "1 66833U 25280N   25356.58335648  .00035105  00000+0  57137-3 0  9995", "line2": "2 66833  70.0000 171.4271 0003421 270.6088  40.1857 15.52491992  4476"}}, "geometry": {"type": "Point", "coordinates": [-132.8952556893762, 66.39154533500577]}}, {"type": "Feature", "properties": {"norad_id": 66834, "name": "STARLINK-35840", "group": "last-30-days", "lat": 67.33191651154696, "lon": -128.6423323501523, "alt_km": 404.5711345156478, "timestamp": "2025-12-22T20:43:44.566207+00:00", "meta": {"OBJECT_NAME": "STARLINK-35840", "OBJECT_ID": "2025-280P", "EPOCH": "2025-12-22T14:00:01.999872", "MEAN_MOTION": 15.52494009, "ECCENTRICITY": 0.00034877, "INCLINATION": 70.0002, "RA_OF_ASC_NODE": 171.4242, "ARG_OF_PERICENTER": 266.2606, "MEAN_ANOMALY": 46.4517, "EPHEMERIS_TYPE": 0, "CLASSIFICATION_TYPE": "U", "NORAD_CAT_ID": 66834, "ELEMENT_SET_NO": 999, "REV_AT_EPOCH": 447, "BSTAR": 0.00050309011, "MEAN_MOTION_DOT": 0.00030876, "MEAN_MOTION_DDOT": 0}, "tle": {"line1": "1 66834U 25280P   25356.58335648  .00030876  00000+0  50309-3 0  9990", "line2": "2 66834  70.0002 171.4242 0003487 266.2606  46.4517 15.52494009  4470"}}, "geometry": {"type": "Point", "coordinates": [-128.6423323501523, 67.33191651154696]}}, {"type": "Feature", "properties": {"norad_id": 66835, "name": "STARLINK-35890", "group": "last-30-days", "lat": 68.15102693530174, "lon": -124.0631488758698, "alt_km": 404.37130203892957, "timestamp": "2025-12-22T20:43:44.566217+00:00", "meta": {"OBJECT_NAME": "STARLINK-35890", "OBJECT_ID": "2025-280Q", "EPOCH": "2025-12-22T14:00:01.999872", "MEAN_MOTION": 15.52497059, "ECCENTRICITY": 0.00032972, "INCLINATION": 70.0003, "RA_OF_ASC_NODE": 171.4225, "ARG_OF_PERICENTER": 268.7426, "MEAN_ANOMALY": 45.8835, "EPHEMERIS_TYPE": 0, "CLASSIFICATION_TYPE": "U", "NORAD_CAT_ID": 66835, "ELEMENT_SET_NO": 999, "REV_AT_EPOCH": 447, "BSTAR": 0.00036837032, "MEAN_MOTION_DOT": 0.00022541, "MEAN_MOTION_DDOT": 0}, "tle": {"line1": "1 66835U 25280Q   25356.58335648  .00022541  00000+0  36837-3 0  9991", "line2": "2 66835  70.0003 171.4225 0003297 268.7426  45.8835 15.52497059  4473"}}, "geometry": {"type": "Point", "coordinates": [-124.0631488758698, 68.15102693530174]}}, {"type": "Feature", "properties": {"norad_id": 66836, "name": "STARLINK-35838", "group": "last-30-days", "lat": 68.83477607890731, "lon": -119.17434775564512, "alt_km": 404.3270166040811, "timestamp": "2025-12-22T20:43:44.566229+00:00", "meta": {"OBJECT_NAME": "STARLINK-35838", "OBJECT_ID": "2025-280R", "EPOCH": "2025-12-22T14:00:01.999872", "MEAN_MOTION": 15.52490523, "ECCENTRICITY": 0.00033185, "INCLINATION": 70.0002, "RA_OF_ASC_NODE": 171.4191, "ARG_OF_PERICENTER": 269.5362, "MEAN_ANOMALY": 47.0082, "EPHEMERIS_TYPE": 0, "CLASSIFICATION_TYPE": "U", "NORAD_CAT_ID": 66836, "ELEMENT_SET_NO": 999, "REV_AT_EPOCH": 447, "BSTAR": 0.00061561913, "MEAN_MOTION_DOT": 0.00037848, "MEAN_MOTION_DDOT": 0}, "tle": {"line1": "1 66836U 25280R   25356.58335648  .00037848  00000+0  61562-3 0  9991", "line2": "2 66836  70.0002 171.4191 0003318 269.5362  47.0082 15.52490523  4474"}}, "geometry": {"type": "Point", "coordinates": [-119.17434775564512, 68.83477607890731]}}, {"type": "Feature", "properties": {"norad_id": 66837, "name": "STARLINK-35729", "group": "last-30-days", "lat": 69.36975321444163, "lon": -114.0092770065024, "alt_km": 404.2568852142158, "timestamp": "2025-12-22T20:43:44.566239+00:00", "meta": {"OBJECT_NAME": "STARLINK-35729", "OBJECT_ID": "2025-280S", "EPOCH": "2025-12-22T14:00:01.999872", "MEAN_MOTION": 15.52497109, "ECCENTRICITY": 0.00032658, "INCLINATION": 70.0004, "RA_OF_ASC_NODE": 171.4171, "ARG_OF_PERICENTER": 265.4039, "MEAN_ANOMALY": 53.056, "EPHEMERIS_TYPE": 0, "CLASSIFICATION_TYPE": "U", "NORAD_CAT_ID": 66837, "ELEMENT_SET_NO": 999, "REV_AT_EPOCH": 447, "BSTAR": 0.00043264948, "MEAN_MOTION_DOT": 0.00026517, "MEAN_MOTION_DDOT": 0}, "tle": {"line1": "1 66837U 25280S   25356.58335648  .00026517  00000+0  43265-3 0  9993", "line2": "2 66837  70.0004 171.4171 0003265 265.4039  53.0560 15.52497109  4477"}}, "geometry": {"type": "Point", "coordinates": [-114.0092770065024, 69.36975321444163]}}, {"type": "Feature", "properties": {"norad_id": 66838, "name": "STARLINK-35886", "group": "last-30-days", "lat": 69.94848173198179, "lon": -103.06672674703609, "alt_km": 404.1637211473944, "timestamp": "2025-12-22T20:43:44.566249+00:00", "meta": {"OBJECT_NAME": "STARLINK-35886", "OBJECT_ID": "2025-280T", "EPOCH": "2025-12-22T14:00:01.999872", "MEAN_MOTION": 15.52489881, "ECCENTRICITY": 0.00031914, "INCLINATION": 70.0004, "RA_OF_ASC_NODE": 171.412, "ARG_OF_PERICENTER": 269.5202, "MEAN_ANOMALY": 52.7805, "EPHEMERIS_TYPE": 0, "CLASSIFICATION_TYPE": "U", "NORAD_CAT_ID": 66838, "ELEMENT_SET_NO": 999, "REV_AT_EPOCH": 447, "BSTAR": 0.00060536774, "MEAN_MOTION_DOT": 0.0003721, "MEAN_MOTION_DDOT": 0}, "tle": {"line1": "1 66838U 25280T   25356.58335648  .00037210  00000+0  60537-3 0  9997", "line2": "2 66838  70.0004 171.4120 0003191 269.5202  52.7805 15.52489881  4473"}}, "geometry": {"type": "Point", "coordinates": [-103.06672674703609, 69.94848173198179]}}, {"type": "Feature", "properties": {"norad_id": 66839, "name": "STARLINK-35717", "group": "last-30-days", "lat": 69.74485408937001, "lon": -108.60288418778603, "alt_km": 404.3194596670328, "timestamp": "2025-12-22T20:43:44.566259+00:00", "meta": {"OBJECT_NAME": "STARLINK-35717", "OBJECT_ID": "2025-280U", "EPOCH": "2025-12-22T14:00:01.999872", "MEAN_MOTION": 15.52489975, "ECCENTRICITY": 0.00034004, "INCLINATION": 70.0004, "RA_OF_ASC_NODE": 171.4141, "ARG_OF_PERICENTER": 268.9361, "MEAN_ANOMALY": 51.4486, "EPHEMERIS_TYPE": 0, "CLASSIFICATION_TYPE": "U", "NORAD_CAT_ID": 66839, "ELEMENT_SET_NO": 999, "REV_AT_EPOCH": 447, "BSTAR": 0.00062105586, "MEAN_MOTION_DOT": 0.00038185, "MEAN_MOTION_DDOT": 0}, "tle": {"line1": "1 66839U 25280U   25356.58335648  .00038185  00000+0  62106-3 0  9994", "line2": "2 66839  70.0004 171.4141 0003400 268.9361  51.4486 15.52489975  4474"}}, "geometry": {"type": "Point", "coordinates": [-108.60288418778603, 69.74485408937001]}}]}